OBJECT_NAME,OBJECT_ID,EPOCH,MEAN_MOTION,ECCENTRICITY,INCLINATION,RA_OF_ASC_NODE,ARG_OF_PERICENTER,MEAN_ANOMALY,EPHEMERIS_TYPE,CLASSIFICATION_TYPE,NORAD_CAT_ID,ELEMENT_SET_NO,REV_AT_EPOCH,BSTAR,MEAN_MOTION_DOT,MEAN_MOTION_DDOT
DONGPO 02,2022-098J,2026-06-17T14:56:30.505920,15.74691614,.00024459,97.5529,299.8489,269.2367,90.8617,0,U,53452,999,21486,.63680838E-3,.93874E-3,0
DONGPO 01,2022-098K,2026-06-17T04:02:21.672960,15.72444208,.00019929,97.5598,299.8812,232.3781,127.7301,0,U,53453,999,21475,.62469177E-3,.83564E-3,0
STARLINK-4400,2022-099D,2026-06-17T13:51:05.289984,15.05696032,.00020991,97.3465,287.5827,131.0227,229.1183,0,U,53468,999,21100,-.63434838E-3,-.9209E-4,0
STARLINK-4621,2022-105AE,2026-06-17T02:45:11.573856,15.05652119,.00022525,97.3523,47.1571,84.4203,275.7282,0,U,53676,999,20819,.14738827E-4,.155E-5,0
SHERPA-LTC2,2022-107BG,2026-06-17T09:22:01.245216,14.69715708,.03938112,53.2343,219.4708,226.6135,130.1417,0,U,53754,999,20257,.21881233E-3,.4161E-4,0
CENTISPACE-1 S3,2022-108A,2026-06-17T13:11:29.778144,14.61253115,.0009396,53.5338,53.7601,356.1829,3.9073,0,U,53757,999,20158,.11038236E-3,.359E-5,0
CENTISPACE-1 S4,2022-108B,2026-06-17T12:48:37.569888,14.61934377,.00085901,53.5313,51.3421,344.3112,15.7596,0,U,53758,999,20161,.13947485E-3,.514E-5,0
BLUEWALKER-3,2022-111AL,2026-06-16T22:04:37.568928,15.38268292,.00063703,53.2296,35.2268,159.9771,200.1486,0,U,53807,999,21016,.15345331E-3,.5483E-4,0
YUNHAI-1 03,2022-115A,2026-06-17T14:33:19.674144,14.32718367,.0005771,98.5532,166.7482,54.6316,305.5406,0,U,53877,999,19557,.11973201E-3,.282E-5,0
CENTISPACE-1 S5,2022-126A,2026-06-17T13:29:10.406400,14.63014592,.00146032,54.9976,211.4609,73.1179,287.1415,0,U,54020,999,19709,.10888385E-3,.373E-5,0
CENTISPACE-1 S6,2022-126B,2026-06-17T13:19:36.568704,14.62290901,.00164521,54.9980,213.3543,73.2359,287.0439,0,U,54021,999,19705,.72716594E-4,.181E-5,0
OTB-3-GAZELLE,2022-127A,2026-06-17T13:05:12.429600,14.42674564,.0013005,98.3944,160.2442,182.0234,178.0906,0,U,54023,999,19441,.44832776E-4,.106E-5,0
ASO-S,2022-129A,2026-06-17T14:21:37.855584,14.52061922,.0015775,98.2747,173.6729,91.5551,268.7452,0,U,54029,999,19548,.49642336E-4,.156E-5,0
HJ-2E,2022-132A,2026-06-17T14:43:36.557184,15.22320702,.00204593,97.3794,172.9822,13.7149,346.4639,0,U,54035,999,20448,.28633457E-3,.6567E-4,0
COSMOS 2561,2022-137A,2026-06-17T14:43:24.242592,15.51710980,.0010594,96.9172,227.5985,34.7980,325.3965,0,U,54109,999,20641,.17552765E-3,.10385E-3,0
GONETS-M 23,2022-139A,2026-06-17T14:02:02.904576,12.42890856,.0020921,82.5072,348.0472,218.7738,141.1842,0,U,54150,999,16569,.3266026E-5,.1E-6,0
GONETS-M 24,2022-139B,2026-06-17T13:23:18.023136,12.42891467,.00160194,82.4989,347.1235,229.1384,130.8308,0,U,54151,999,16569,.35564498E-4,.15E-6,0
GONETS-M 25,2022-139C,2026-06-17T13:03:41.844384,12.42890021,.00199416,82.5055,347.8185,227.9814,131.9568,0,U,54152,999,16569,-.804182E-5,.9E-7,0
SKIF-D,2022-139D,2026-06-17T06:09:45.864576,5.00427603,.00073843,89.9509,96.6677,199.1602,160.8623,0,U,54153,999,6411,0,.12E-6,0
MATS,2022-147A,2026-06-17T12:20:30.519168,15.05355154,.00121022,97.6817,170.1097,190.0692,170.0294,0,U,54227,999,19781,.13684229E-3,.19E-4,0
JILIN-1 GAOFEN 03D54,2022-155D,2026-06-17T02:05:46.563936,15.98577285,.00058926,97.6131,321.1856,262.8455,97.2152,0,U,54254,999,20028,.75735162E-3,.354208E-2,.54092919E-4
EOS-6 (OCEANSAT-3),2022-158A,2026-06-17T13:51:45.180000,14.47000644,.00012043,98.3541,266.7666,49.1039,311.0258,0,U,54361,999,18789,.71008356E-4,.215E-5,0
DONGPO 09,2022-167D,2026-06-17T14:31:45.754752,15.36342833,.00035509,97.6898,339.6302,115.4744,244.6867,0,U,54685,999,19551,.28147133E-3,.9892E-4,0
DONGPO 08,2022-167E,2026-06-17T14:04:42.301344,15.33652397,.00086841,97.6864,336.7867,159.2433,200.9163,0,U,54686,999,19538,.26731249E-3,.8624E-4,0
2022-167F,2022-167F,2026-06-17T05:02:02.719680,15.92722258,.00019085,97.6110,356.1296,231.1370,128.9734,0,U,54687,999,19683,.61052072E-3,.20794E-2,.18437789E-4
DONGPO 10,2022-167H,2026-06-17T14:13:58.154016,15.34460834,.00062772,97.6944,338.7459,108.9736,251.2187,0,U,54689,999,19542,.26829315E-3,.8876E-4,0
JILIN-1 GAOFEN 03D48,2022-167P,2026-06-17T14:10:22.719072,15.35227943,.00076204,97.6879,338.1214,113.7039,246.5004,0,U,54695,999,19545,.27143525E-3,.9207E-4,0
STAR VIBE,2023-001A,2026-06-17T13:25:45.018912,15.42624869,.00071405,97.3168,233.0249,111.5518,248.6491,0,U,55009,999,19228,.2694872E-3,.11655E-3,0
BRO-8,2023-001C,2026-06-17T15:06:29.827296,15.49084109,.00068018,97.3213,233.8194,123.3127,236.8776,0,U,55011,999,19227,.49877777E-3,.27052E-3,0
CONNECTA T1.2,2023-001D,2026-06-16T23:27:17.462016,15.50705483,.00065999,97.3269,238.6641,103.5919,256.6068,0,U,55012,999,19251,.61084156E-3,.35133E-3,0
