DONGPO 02               
1 53452U 22098J   26168.62257530  .00093874  00000+0  63681-3 0  9990
2 53452  97.5529 299.8489 0002445 269.2367  90.8617 15.74691614214863
DONGPO 01               
1 53453U 22098K   26168.16830640  .00083564  00000+0  62469-3 0  9997
2 53453  97.5598 299.8812 0001992 232.3781 127.7301 15.72444208214758
STARLINK-4400           
1 53468U 22099D   26168.57714456 -.00009209  00000+0 -63435-3 0  9995
2 53468  97.3465 287.5827 0002099 131.0227 229.1183 15.05696032211004
STARLINK-4621           
1 53676U 22105AE  26168.11471729  .00000155  00000+0  14739-4 0  9990
2 53676  97.3523  47.1571 0002252  84.4203 275.7282 15.05652119208193
SHERPA-LTC2             
1 53754U 22107BG  26168.39029219  .00004161  00000+0  21881-3 0  9998
2 53754  53.2343 219.4708 0393811 226.6135 130.1417 14.69715708202578
CENTISPACE-1 S3         
1 53757U 22108A   26168.54965021  .00000359  00000+0  11038-3 0  9997
2 53757  53.5338  53.7601 0009396 356.1829   3.9073 14.61253115201586
CENTISPACE-1 S4         
1 53758U 22108B   26168.53376817  .00000514  00000+0  13947-3 0  9990
2 53758  53.5313  51.3421 0008590 344.3112  15.7596 14.61934377201614
BLUEWALKER-3            
1 53807U 22111AL  26167.91987927  .00005483  00000+0  15345-3 0  9994
2 53807  53.2296  35.2268 0006370 159.9771 200.1486 15.38268292210160
YUNHAI-1 03             
1 53877U 22115A   26168.60647771  .00000282  00000+0  11973-3 0  9997
2 53877  98.5532 166.7482 0005771  54.6316 305.5406 14.32718367195575
CENTISPACE-1 S5         
1 54020U 22126A   26168.56192600  .00000373  00000+0  10888-3 0  9996
2 54020  54.9976 211.4609 0014603  73.1179 287.1415 14.63014592197097
CENTISPACE-1 S6         
1 54021U 22126B   26168.55528436  .00000181  00000+0  72717-4 0  9993
2 54021  54.9980 213.3543 0016452  73.2359 287.0439 14.62290901197056
OTB-3-GAZELLE           
1 54023U 22127A   26168.54528275  .00000106  00000+0  44833-4 0  9991
2 54023  98.3944 160.2442 0013005 182.0234 178.0906 14.42674564194414
ASO-S                   
1 54029U 22129A   26168.59835481  .00000156  00000+0  49642-4 0  9992
2 54029  98.2747 173.6729 0015775  91.5551 268.7452 14.52061922195488
HJ-2E                   
1 54035U 22132A   26168.61361756  .00006567  00000+0  28633-3 0  9993
2 54035  97.3794 172.9822 0020459  13.7149 346.4639 15.22320702204481
COSMOS 2561             
1 54109U 22137A   26168.61347503  .00010385  00000+0  17553-3 0  9996
2 54109  96.9172 227.5985 0010594  34.7980 325.3965 15.51710980206416
GONETS-M 23             
1 54150U 22139A   26168.58475584  .00000010  00000+0  32660-5 0  9993
2 54150  82.5072 348.0472 0020921 218.7738 141.1842 12.42890856165692
GONETS-M 24             
1 54151U 22139B   26168.55784749  .00000015  00000+0  35564-4 0  9997
2 54151  82.4989 347.1235 0016019 229.1384 130.8308 12.42891467165693
GONETS-M 25             
1 54152U 22139C   26168.54423431  .00000009  00000+0 -80418-5 0  9998
2 54152  82.5055 347.8185 0019941 227.9814 131.9568 12.42890021165696
SKIF-D                  
1 54153U 22139D   26168.25678084  .00000012  00000+0  00000+0 0  9999
2 54153  89.9509  96.6677 0007384 199.1602 160.8623  5.00427603 64116
MATS                    
1 54227U 22147A   26168.51424212  .00001900  00000+0  13684-3 0  9994
2 54227  97.6817 170.1097 0012102 190.0692 170.0294 15.05355154197811
JILIN-1 GAOFEN 03D54    
1 54254U 22155D   26168.08734449  .00354208  54093-4  75735-3 0  9994
2 54254  97.6131 321.1856 0005892 262.8455  97.2152 15.98577285200286
EOS-6 (OCEANSAT-3)      
1 54361U 22158A   26168.57760625  .00000215  00000+0  71008-4 0  9995
2 54361  98.3541 266.7666 0001204  49.1039 311.0258 14.47000644187896
DONGPO 09               
1 54685U 22167D   26168.60539068  .00009892  00000+0  28147-3 0  9998
2 54685  97.6898 339.6302 0003550 115.4744 244.6867 15.36342833195518
DONGPO 08               
1 54686U 22167E   26168.58660071  .00008624  00000+0  26731-3 0  9994
2 54686  97.6864 336.7867 0008684 159.2433 200.9163 15.33652397195385
2022-167F               
1 54687U 22167F   26168.20975370  .00207940  18438-4  61052-3 0  9991
2 54687  97.6110 356.1296 0001908 231.1370 128.9734 15.92722258196837
DONGPO 10               
1 54689U 22167H   26168.59303419  .00008876  00000+0  26829-3 0  9995
2 54689  97.6944 338.7459 0006277 108.9736 251.2187 15.34460834195423
JILIN-1 GAOFEN 03D48    
1 54695U 22167P   26168.59054073  .00009207  00000+0  27144-3 0  9991
2 54695  97.6879 338.1214 0007620 113.7039 246.5004 15.35227943195454
STAR VIBE               
1 55009U 23001A   26168.55954883  .00011655  00000+0  26949-3 0  9995
2 55009  97.3168 233.0249 0007140 111.5518 248.6491 15.42624869192285
BRO-8                   
1 55011U 23001C   26168.62951189  .00027052  00000+0  49878-3 0  9996
2 55011  97.3213 233.8194 0006801 123.3127 236.8776 15.49084109192274
CONNECTA T1.2           
1 55012U 23001D   26167.97728544  .00035133  00000+0  61084-3 0  9993
2 55012  97.3269 238.6641 0006599 103.5919 256.6068 15.50705483192517
